EUTELSAT 7A             
1 28187U 04008A   25327.43447477  .00000122  00000+0  00000+0 0  9990
2 28187   5.3065  74.4683 0000759 167.0442 198.3546  1.00271273 79290
EUTELSAT 174A           
1 28924U 05052A   25327.69111037  .00000029  00000+0  00000+0 0  9993
2 28924   3.6970  79.0750 0006105 161.8958 244.7776  1.00269883 50278
EUTELSAT HOTBIRD 13B    
1 29270U 06032A   25327.73453065  .00000176  00000+0  00000+0 0  9995
2 29270   1.1284  84.5308 0003313 156.0507 119.9342  1.00274956 45248
EUTELSAT HOTBIRD 13C    
1 33459U 08065A   25327.72161725 -.00000227  00000+0  00000+0 0  9993
2 33459   2.4196  81.6261 0000783 132.6499  76.1802  1.00053042 45282
EUTELSAT 36B            
1 36101U 09065A   25327.73799733  .00000133  00000+0  00000+0 0  9993
2 36101   0.0419 359.8076 0005910 242.5918 136.7555  1.00270496 58645
EUTELSAT KA-SAT 9A      
1 37258U 10069A   25327.72976396  .00000082  00000+0  00000+0 0  9997
2 37258   0.0561 323.6097 0002242 223.0616 148.0283  1.00269710 41949
EUTELSAT 7 WEST A       
1 37816U 11051A   25327.72655727 -.00000039  00000+0  00000+0 0  9994
2 37816   0.0766  29.2509 0005921 191.3872  96.5938  1.00272797 51811
EUTELSAT 16A            
1 37836U 11057A   25327.73115061  .00000124  00000+0  00000+0 0  9999
2 37836   0.0611   0.0613 0005984 249.6183  92.4964  1.00269946  5260
